[
    {
        "Altitude(m)": 604983.0530826345,
        "Argument of Periapsis(deg)": 0.0,
        "Eccentricity": 0.0,
        "Inclination(deg)": 60.0,
        "Latitude(deg)": -0.09274259277638386,
        "Longitude(deg)": -69.91608357863433,
        "Mean Anomaly(deg)": -180.0,
        "RAAN(deg)": 210.0,
        "Satellite Name": "Test1 935",
        "Satellite Number": 935,
        "Semi-Major Axis(m)": 6980739.136638005,
        "Time(s)": 0
    },
    {
        "Altitude(m)": 605055.3332035753,
        "Argument of Periapsis(deg)": 0.00010418945913296404,
        "Eccentricity": 0.0,
        "Inclination(deg)": 60.0,
        "Latitude(deg)": -0.6331524060202097,
        "Longitude(deg)": -69.64795854353311,
        "Mean Anomaly(deg)": -179.37989385453818,
        "RAAN(deg)": 209.99957995086027,
        "Satellite Name": "Test1 935",
        "Satellite Number": 935,
        "Semi-Major Axis(m)": 6980739.136638005,
        "Time(s)": 10
    }
]